[
    {
        "Altitude(m)": 622205.8305649,
        "Argument of Periapsis(deg)": 0.0,
        "Eccentricity": 0.0,
        "Inclination(deg)": 60.0,
        "Latitude(deg)": -52.16233350012228,
        "Longitude(deg)": 77.70045434645837,
        "Mean Anomaly(deg)": -114.5455,
        "RAAN(deg)": 310.0,
        "Satellite Name": "Test1 1379",
        "Satellite Number": 1379,
        "Semi-Major Axis(m)": 6980739.136638005,
        "Time(s)": 0
    },
    {
        "Altitude(m)": 622344.7369993504,
        "Argument of Periapsis(deg)": 0.00010418945913296404,
        "Eccentricity": 0.0,
        "Inclination(deg)": 60.0,
        "Latitude(deg)": -52.51991247437704,
        "Longitude(deg)": 78.48166568035829,
        "Mean Anomaly(deg)": -113.92539385453817,
        "RAAN(deg)": 309.99957995086027,
        "Satellite Name": "Test1 1379",
        "Satellite Number": 1379,
        "Semi-Major Axis(m)": 6980739.136638005,
        "Time(s)": 10
    }
]